PRAETORIAN SDA_617      
1 65580U 25203R   26064.20216011  .00000068  00000+0  51525-4 0  9992
2 65580  81.3010 107.0424 0008715 112.0232 248.1850 13.83190784 24311
PRAETORIAN SDA_618      
1 65581U 25203S   26064.22078934  .00000233  00000+0  19613-3 0  9990
2 65581  81.2995 106.8761 0010955 113.4104 246.8207 13.84762227 24326
PRAETORIAN SDA_619      
1 65582U 25203T   26064.19399506  .00000274  00000+0  23649-3 0  9997
2 65582  81.3019 107.0393 0009261 111.3142 248.9004 13.83930110 24949
PRAETORIAN SDA_620      
1 65583U 25203U   26064.20237409  .00000266  00000+0  22979-3 0  9999
2 65583  81.3005 107.0259 0008768 110.0806 250.1295 13.83704918 24313
PRAETORIAN SDA_621      
1 65584U 25203V   26064.18671044  .00000088  00000+0  68491-4 0  9996
2 65584  81.2994 106.9905 0008659 106.8399 253.3708 13.83786808 24317
PRAETORIAN SDA_601      
1 65585U 25203W   26064.19743754  .00000115  00000+0  93926-4 0  9998
2 65585  81.3005 107.1910 0006447 118.8304 241.3500 13.83483785 24307
