[{"OBJECT_NAME":"PRAETORIAN SDA_617","OBJECT_ID":"2025-203R","EPOCH":"2026-03-05T04:51:06.633504","MEAN_MOTION":13.83190784,"ECCENTRICITY":0.0008715,"INCLINATION":81.301,"RA_OF_ASC_NODE":107.0424,"ARG_OF_PERICENTER":112.0232,"MEAN_ANOMALY":248.185,"EPHEMERIS_TYPE":0,"CLASSIFICATION_TYPE":"U","NORAD_CAT_ID":65580,"ELEMENT_SET_NO":999,"REV_AT_EPOCH":2431,"BSTAR":5.1524656e-5,"MEAN_MOTION_DOT":6.8e-7,"MEAN_MOTION_DDOT":0},{"OBJECT_NAME":"PRAETORIAN SDA_618","OBJECT_ID":"2025-203S","EPOCH":"2026-03-05T05:17:56.198976","MEAN_MOTION":13.84762227,"ECCENTRICITY":0.00109552,"INCLINATION":81.2995,"RA_OF_ASC_NODE":106.8761,"ARG_OF_PERICENTER":113.4104,"MEAN_ANOMALY":246.8207,"EPHEMERIS_TYPE":0,"CLASSIFICATION_TYPE":"U","NORAD_CAT_ID":65581,"ELEMENT_SET_NO":999,"REV_AT_EPOCH":2432,"BSTAR":0.00019613487,"MEAN_MOTION_DOT":2.33e-6,"MEAN_MOTION_DDOT":0},{"OBJECT_NAME":"PRAETORIAN SDA_619","OBJECT_ID":"2025-203T","EPOCH":"2026-03-05T04:39:21.173184","MEAN_MOTION":13.8393011,"ECCENTRICITY":0.00092613,"INCLINATION":81.3019,"RA_OF_ASC_NODE":107.0393,"ARG_OF_PERICENTER":111.3142,"MEAN_ANOMALY":248.9004,"EPHEMERIS_TYPE":0,"CLASSIFICATION_TYPE":"U","NORAD_CAT_ID":65582,"ELEMENT_SET_NO":999,"REV_AT_EPOCH":2494,"BSTAR":0.00023648946,"MEAN_MOTION_DOT":2.74e-6,"MEAN_MOTION_DDOT":0},{"OBJECT_NAME":"PRAETORIAN SDA_620","OBJECT_ID":"2025-203U","EPOCH":"2026-03-05T04:51:25.121376","MEAN_MOTION":13.83704918,"ECCENTRICITY":0.00087681,"INCLINATION":81.3005,"RA_OF_ASC_NODE":107.0259,"ARG_OF_PERICENTER":110.0806,"MEAN_ANOMALY":250.1295,"EPHEMERIS_TYPE":0,"CLASSIFICATION_TYPE":"U","NORAD_CAT_ID":65583,"ELEMENT_SET_NO":999,"REV_AT_EPOCH":2431,"BSTAR":0.00022979412,"MEAN_MOTION_DOT":2.66e-6,"MEAN_MOTION_DDOT":0},{"OBJECT_NAME":"PRAETORIAN SDA_621","OBJECT_ID":"2025-203V","EPOCH":"2026-03-05T04:28:51.782016","MEAN_MOTION":13.83786808,"ECCENTRICITY":0.00086596,"INCLINATION":81.2994,"RA_OF_ASC_NODE":106.9905,"ARG_OF_PERICENTER":106.8399,"MEAN_ANOMALY":253.3708,"EPHEMERIS_TYPE":0,"CLASSIFICATION_TYPE":"U","NORAD_CAT_ID":65584,"ELEMENT_SET_NO":999,"REV_AT_EPOCH":2431,"BSTAR":6.8490578e-5,"MEAN_MOTION_DOT":8.8e-7,"MEAN_MOTION_DDOT":0},{"OBJECT_NAME":"PRAETORIAN SDA_601","OBJECT_ID":"2025-203W","EPOCH":"2026-03-05T04:44:18.603456","MEAN_MOTION":13.83483785,"ECCENTRICITY":0.00064479,"INCLINATION":81.3005,"RA_OF_ASC_NODE":107.191,"ARG_OF_PERICENTER":118.8304,"MEAN_ANOMALY":241.35,"EPHEMERIS_TYPE":0,"CLASSIFICATION_TYPE":"U","NORAD_CAT_ID":65585,"ELEMENT_SET_NO":999,"REV_AT_EPOCH":2430,"BSTAR":9.3925647e-5,"MEAN_MOTION_DOT":1.15e-6,"MEAN_MOTION_DDOT":0}]
